{"type":"Feature","properties":{},"geometry":{"type":"MultiPolygon","coordinates":[[[[-74.5376,-0.4628],[-74.5756,-0.3958],[-74.7261,-0.35],[-74.7775,-0.2087],[-74.8547,-0.2434],[-74.9281,-0.2285],[-75.0689,-0.0946],[-75.2023,-0.0451],[-75.2758,-0.1269],[-75.3921,-0.1021],[-75.5696,-0.0302],[-75.6332,0.0454],[-75.7397,0.0318],[-75.8217,0.0826],[-75.9552,0.2016],[-76.0103,0.2983],[-76.1327,0.3702],[-76.2,0.3726],[-76.3126,0.4334],[-76.3371,0.385],[-76.4118,0.3788],[-76.4118,0.2412],[-76.5844,0.2202],[-76.6187,0.2561],[-76.7325,0.2883],[-76.8488,0.24],[-77.0802,0.2871],[-77.1132,0.3726],[-77.2968,0.3652],[-77.325,0.3875],[-77.5233,0.416],[-77.5221,0.5313],[-77.4854,0.6565],[-77.5637,0.6515],[-77.6971,0.7544],[-77.6641,0.8114],[-77.7131,0.8511],[-77.8673,0.8015],[-77.9652,0.8238],[-78.0338,0.8796],[-78.1966,0.949],[-78.1954,0.9849],[-78.27,1.0469],[-78.3141,1.1907],[-78.4182,1.1597],[-78.5063,1.1969],[-78.5443,1.244],[-78.6214,1.2502],[-78.7095,1.3592],[-78.7903,1.4076],[-78.8185,1.4733],[-78.9592,1.5935],[-79.007,1.658],[-78.8613,1.8067],[-78.8099,1.829],[-78.7169,1.7695],[-78.6018,1.7943],[-78.5394,1.8575],[-78.5993,1.8997],[-78.5871,1.9728],[-78.6716,2.031],[-78.7132,2.1649],[-78.6275,2.3198],[-78.6238,2.3719],[-78.5504,2.4921],[-78.3337,2.6557],[-78.1427,2.6805],[-78.073,2.6111],[-78.035,2.6483],[-77.9285,2.6409],[-77.9077,2.6805],[-77.7902,2.7301],[-77.7363,2.7871],[-77.6714,2.9359],[-77.691,3.0003],[-77.5625,3.1627],[-77.4976,3.216],[-77.5502,3.2308],[-77.4805,3.3226],[-77.3372,3.4478],[-77.3666,3.4837],[-77.3005,3.5705],[-77.2283,3.5829],[-77.1842,3.6547],[-77.1977,3.7465],[-77.1806,3.832],[-77.2834,3.8419],[-77.3177,3.9497],[-77.2124,4.0092],[-77.243,4.0836],[-77.314,4.0291],[-77.3593,3.9262],[-77.4499,4.039],[-77.5258,4.127],[-77.5245,4.2571],[-77.4278,4.3179],[-77.3544,4.4158],[-77.3262,4.5695],[-77.3128,4.774],[-77.3483,4.8112],[-77.3752,4.9587],[-77.3874,5.2884],[-77.4131,5.4036],[-77.3899,5.4433],[-77.4719,5.4904],[-77.5392,5.4805],[-77.5037,5.5846],[-77.4217,5.6255],[-77.3385,5.6193],[-77.2638,5.716],[-77.2565,5.7941],[-77.2895,5.8461],[-77.336,6.0011],[-77.4548,6.1337],[-77.4829,6.1932],[-77.4095,6.2279],[-77.3593,6.3927],[-77.3593,6.4882],[-77.325,6.5489],[-77.3972,6.6208],[-77.4486,6.7063],[-77.516,6.6567],[-77.5698,6.7956],[-77.6176,6.8427],[-77.7106,6.8798],[-77.6629,7.0001],[-77.8832,7.2182],[-77.7926,7.4612],[-77.702,7.5095],[-77.7486,7.6149],[-77.7424,7.6781],[-77.647,7.6533],[-77.6066,7.5417],[-77.5686,7.5083],[-77.4927,7.5839],[-77.3128,7.8974],[-77.1793,7.9173],[-77.2185,8.0896],[-77.2613,8.2123],[-77.3336,8.2742],[-77.3862,8.4403],[-77.4499,8.4998],[-77.3446,8.6448],[-77.2871,8.5717],[-77.2479,8.4713],[-77.1291,8.4094],[-77.0361,8.2532],[-76.9798,8.2557],[-76.9247,8.0251],[-76.9223,7.9173],[-76.828,7.9024],[-76.7484,7.9222],[-76.7337,8.071],[-76.7386,8.1739],[-76.7741,8.2681],[-76.7582,8.392],[-76.8243,8.4961],[-76.9272,8.542],[-76.8855,8.6225],[-76.6493,8.6709],[-76.6309,8.7304],[-76.544,8.7626],[-76.413,8.8742],[-76.3396,8.9188],[-76.2649,8.9981],[-76.2514,9.0576],[-76.189,9.1158],[-76.1706,9.2299],[-76.1021,9.2757],[-76.0813,9.3365],[-75.9784,9.3761],[-75.9491,9.4443],[-75.7838,9.3935],[-75.7006,9.4121],[-75.6357,9.4282],[-75.5965,9.4902],[-75.5708,9.6178],[-75.6442,9.7567],[-75.5818,9.9513],[-75.5732,10.0864],[-75.5243,10.1731],[-75.5622,10.2698],[-75.5035,10.3008],[-75.512,10.5722],[-75.3957,10.6813],[-75.2758,10.7148],[-75.2244,10.7953],[-75.0444,10.8994],[-75.0052,10.98],[-74.8522,11.1052],[-74.5988,11.0085],[-74.474,10.9788],[-74.3564,10.9763],[-74.2634,11.0073],[-74.2181,11.0655],[-74.2377,11.2217],[-74.1459,11.3357],[-74.0773,11.3171],[-73.9794,11.3395],[-73.857,11.2738],[-73.6611,11.2527],[-73.5754,11.2601],[-73.3624,11.2626],[-73.2755,11.2862],[-73.1433,11.4076],[-73.0246,11.4944],[-72.8838,11.5638],[-72.8262,11.6357],[-72.7234,11.7001],[-72.459,11.777],[-72.2374,11.8861],[-72.1383,12.1042],[-72.1432,12.2393],[-71.9644,12.2567],[-71.995,12.186],[-71.9595,12.1501],[-71.8604,12.2108],[-71.9277,12.2976],[-71.8604,12.3558],[-71.8053,12.305],[-71.6915,12.3657],[-71.6241,12.4401],[-71.5421,12.4401],[-71.2826,12.3434],[-71.2251,12.2728],[-71.1149,12.0856],[-71.1357,12.0026],[-71.2348,11.953],[-71.3781,11.8117],[-71.6107,11.746],[-71.8016,11.6803],[-71.9718,11.6468],[-72.246,11.1449],[-72.3488,11.1511],[-72.4847,11.099],[-72.4847,11.0618],[-72.5802,10.9106],[-72.6377,10.8846],[-72.7112,10.7519],[-72.7516,10.633],[-72.8373,10.5388],[-72.9009,10.4359],[-72.8997,10.2091],[-72.9119,10.1149],[-72.9989,9.9227],[-72.9719,9.8546],[-73.0552,9.6786],[-73.0845,9.5571],[-73.1764,9.5013],[-73.2412,9.4034],[-73.2988,9.2708],[-73.3685,9.1729],[-73.2523,9.158],[-73.1764,9.1766],[-73.0086,9.2906],[-72.9646,9.2001],[-72.9817,9.1468],[-72.9327,9.0824],[-72.8826,9.1307],[-72.7663,9.0997],[-72.7197,8.9411],[-72.6549,8.6151],[-72.3892,8.3486],[-72.3831,8.2321],[-72.3537,8.1565],[-72.3733,8.1044],[-72.3464,8.0375],[-72.4872,7.9458],[-72.4443,7.8603],[-72.4688,7.7933],[-72.4761,7.6334],[-72.4529,7.5653],[-72.4786,7.4983],[-72.4247,7.4017],[-72.2558,7.3781],[-72.1983,7.3868],[-72.1542,7.3285],[-72.1701,7.2517],[-72.0477,7.0385],[-71.9485,7.0112],[-71.8347,7.0261],[-71.8114,7.062],[-71.7147,7.0348],[-71.6486,7.0509],[-71.5739,7.0261],[-71.4246,7.0385],[-71.3793,7.0174],[-71.1283,7.0323],[-71.1112,6.9902],[-71.0218,6.974],[-70.8958,7.0596],[-70.6974,7.0943],[-70.6081,7.0645],[-70.5481,7.0744],[-70.5028,7.0063],[-70.4306,7.0075],[-70.3229,6.9344],[-70.2249,6.9753],[-70.1172,6.979],[-69.8136,6.5972],[-69.428,6.1077],[-69.3448,6.1448],[-69.3105,6.0903],[-69.237,6.0804],[-69.1232,6.1919],[-69.0436,6.2217],[-68.8759,6.1671],[-68.8306,6.1795],[-68.6433,6.1287],[-68.5968,6.1634],[-68.3789,6.1857],[-68.2957,6.1659],[-68.2577,6.1969],[-68.0937,6.2316],[-68.0263,6.1969],[-67.9247,6.2403],[-67.8354,6.3171],[-67.7693,6.2948],[-67.615,6.2874],[-67.5342,6.2589],[-67.4571,6.1895],[-67.4938,6.1275],[-67.4118,6.011],[-67.5893,5.8387],[-67.6309,5.7333],[-67.6371,5.6453],[-67.5991,5.5449],[-67.6248,5.4768],[-67.8011,5.3578],[-67.8501,5.3045],[-67.8231,5.2475],[-67.855,5.1384],[-67.806,5.0553],[-67.8378,4.9475],[-67.8182,4.7071],[-67.8452,4.6451],[-67.8574,4.5249],[-67.7913,4.4666],[-67.7644,4.3612],[-67.806,4.3154],[-67.7974,4.2299],[-67.7081,4.0452],[-67.6922,3.9361],[-67.6126,3.7551],[-67.5012,3.7675],[-67.4388,3.6399],[-67.4437,3.5853],[-67.402,3.48],[-67.3396,3.4515],[-67.3127,3.3945],[-67.3347,3.335],[-67.8623,2.8652],[-67.8219,2.8268],[-67.6579,2.797],[-67.6212,2.8144],[-67.5624,2.7214],[-67.5685,2.6681],[-67.4865,2.6669],[-67.4706,2.6247],[-67.3445,2.5243],[-67.298,2.4425],[-67.1878,2.3508],[-67.2209,2.2504],[-67.1621,2.1327],[-67.1144,2.1339],[-67.0972,2.0509],[-67.1229,1.9802],[-67.0715,1.9344],[-67.0336,1.7869],[-66.9626,1.6666],[-66.9638,1.5972],[-66.9209,1.5315],[-66.9124,1.4274],[-66.8561,1.3692],[-66.8805,1.2898],[-66.8573,1.2279],[-67.0886,1.1659],[-67.1009,1.2601],[-67.156,1.3171],[-67.0752,1.3729],[-67.0789,1.4733],[-67.1131,1.5947],[-67.1437,1.6047],[-67.1339,1.7955],[-67.2,1.8513],[-67.227,1.9121],[-67.3029,1.9009],[-67.3469,1.9852],[-67.3567,2.1116],[-67.3298,2.1463],[-67.369,2.2157],[-67.4498,2.1686],[-67.5869,2.1215],[-67.6016,2.0434],[-67.6775,2.0087],[-67.7754,2.0124],[-67.8843,1.8947],[-67.9076,1.8042],[-68.1035,1.9083],[-68.1451,1.9728],[-68.2051,1.9877],[-68.2846,1.8364],[-68.232,1.8203],[-68.1635,1.7274],[-69.3937,1.7261],[-69.5345,1.7769],[-69.6447,1.7298],[-69.8454,1.7137],[-69.8467,1.0779],[-69.7451,1.1138],[-69.6741,1.0705],[-69.3815,1.0742],[-69.3215,1.0878],[-69.1991,0.9961],[-69.1403,0.6899],[-69.1991,0.6156],[-69.3582,0.6168],[-69.4341,0.7122],[-69.4819,0.7358],[-69.6337,0.6366],[-69.6875,0.6639],[-69.723,0.6156],[-69.936,0.5536],[-70.0462,0.5635],[-70.0474,-0.1095],[-70.0658,-0.1641],[-69.9017,-0.3376],[-69.8295,-0.3624],[-69.7096,-0.4541],[-69.6116,-0.5],[-69.5725,-0.6326],[-69.6116,-0.7664],[-69.5259,-0.8693],[-69.5284,-0.9189],[-69.4305,-1.0156],[-69.4329,-1.0689],[-69.3962,-1.137],[-69.4292,-1.235],[-69.3986,-1.3663],[-69.428,-1.3874],[-69.5345,-2.0022],[-69.9336,-4.2196],[-69.9825,-4.1899],[-70.089,-4.0647],[-70.1772,-4.0349],[-70.1833,-3.9283],[-70.2482,-3.8949],[-70.2788,-3.8267],[-70.3547,-3.8007],[-70.4857,-3.8763],[-70.564,-3.8242],[-70.6534,-3.8292],[-70.7134,-3.7957],[-70.4392,-3.3619],[-70.0609,-2.7595],[-70.0756,-2.6641],[-70.2188,-2.6566],[-70.2604,-2.555],[-70.3743,-2.498],[-70.4392,-2.5265],[-70.5028,-2.4781],[-70.6289,-2.4794],[-70.6632,-2.3592],[-70.8407,-2.291],[-70.8688,-2.2278],[-70.9362,-2.2575],[-70.9815,-2.2141],[-71.0365,-2.2761],[-71.132,-2.2885],[-71.1271,-2.3381],[-71.1932,-2.3827],[-71.23,-2.348],[-71.3169,-2.3802],[-71.3989,-2.3592],[-71.4503,-2.2848],[-71.6082,-2.2377],[-71.629,-2.2104],[-71.7319,-2.2253],[-71.7196,-2.1646],[-71.8335,-2.1968],[-71.9155,-2.3678],[-72.0159,-2.3691],[-72.0489,-2.3393],[-72.1211,-2.405],[-72.366,-2.493],[-72.4002,-2.4348],[-72.5251,-2.4224],[-72.6316,-2.3592],[-72.6928,-2.4521],[-72.7626,-2.4001],[-72.9058,-2.4447],[-72.9829,-2.3443],[-73.0539,-2.3666],[-73.1568,-2.26],[-73.0943,-2.0443],[-73.1213,-2.0158],[-73.109,-1.8844],[-73.1568,-1.8535],[-73.2094,-1.758],[-73.3355,-1.8039],[-73.5069,-1.732],[-73.5412,-1.6985],[-73.464,-1.5895],[-73.5069,-1.4866],[-73.5828,-1.3763],[-73.6317,-1.2721],[-73.6832,-1.2412],[-73.7737,-1.2622],[-73.8692,-1.225],[-73.9047,-1.1284],[-73.9696,-1.1259],[-74.0271,-1.0652],[-74.2744,-0.9796],[-74.2671,-0.8272],[-74.3785,-0.64],[-74.3895,-0.5533],[-74.5376,-0.4628]]],[[[-81.7356,12.5306],[-81.7222,12.5777],[-81.7038,12.595],[-81.7038,12.543],[-81.7356,12.5306]]],[[[-81.3953,13.3214],[-81.4088,13.3263],[-81.4198,13.335],[-81.4271,13.3437],[-81.4296,13.3548],[-81.4271,13.366],[-81.4198,13.3759],[-81.4088,13.3833],[-81.3953,13.3883],[-81.3794,13.3895],[-81.3647,13.3883],[-81.3512,13.3833],[-81.3402,13.3759],[-81.3329,13.366],[-81.3304,13.3548],[-81.3329,13.3437],[-81.3402,13.335],[-81.3512,13.3263],[-81.3647,13.3214],[-81.3794,13.3201],[-81.3953,13.3214]]]]}}