{"type":"FeatureCollection","features":[{"type":"Feature","properties":{"name":"Brazil"},"geometry":{"type":"MultiPolygon","coordinates":[[[[-73.1185,-6.6292],[-73.2193,-6.0892],[-72.9637,-5.7406],[-72.8917,-5.2751],[-71.7469,-4.5947],[-70.9297,-4.4018],[-70.7965,-4.2511],[-69.8929,-4.2985],[-69.4429,-1.5566],[-69.4213,-1.1233],[-69.5761,-0.5495],[-70.0189,-0.1856],[-70.0153,0.5422],[-69.4537,0.7064],[-69.2521,0.6031],[-69.2197,0.9856],[-69.8029,1.0889],[-69.8173,1.7151],[-67.8697,1.6931],[-67.5385,2.0367],[-67.2613,1.7202],[-67.0633,1.1295],[-66.8761,1.2531],[-66.3253,0.725],[-65.5477,0.7893],[-65.3533,1.0957],[-64.6116,1.3292],[-64.1976,1.4934],[-64.0824,1.9166],[-63.8561,2.0069],[-63.8561,-7.2196],[-73.7233,-7.2196],[-73.7233,-6.9186],[-73.1185,-6.6292]]],[[[-64.41,3.1267],[-64.3668,3.797],[-64.8168,4.0559],[-64.6296,4.149],[-63.888,4.0204],[-63.8561,4.0103],[-63.8561,2.4549],[-64.2696,2.4971],[-64.41,3.1267]]]]}},{"type":"Feature","properties":{"name":"Peru"},"geometry":{"type":"Polygon","coordinates":[[[-70.7965,-4.2511],[-70.9297,-4.4018],[-71.7469,-4.5947],[-72.8917,-5.2751],[-72.9637,-5.7406],[-73.2193,-6.0892],[-73.1185,-6.6292],[-73.7233,-6.9186],[-73.7233,-7.2196],[-79.7499,-7.2196],[-79.7606,-7.1945],[-80.5382,-6.5412],[-81.251,-6.1366],[-80.927,-5.6898],[-81.4094,-4.7369],[-81.0998,-4.0362],[-80.3042,-3.4049],[-80.1854,-3.8212],[-80.4698,-4.0599],[-80.441,-4.4255],[-80.0306,-4.3459],[-79.6238,-4.4542],[-79.2062,-4.9586],[-78.641,-4.5473],[-78.4502,-3.8737],[-77.8382,-3.0037],[-76.6358,-2.6093],[-75.545,-1.5617],[-75.2354,-0.9117],[-75.3722,-0.1518],[-75.1058,-0.057],[-74.4433,-0.5309],[-74.1229,-1.0031],[-73.6585,-1.2604],[-73.0717,-2.3098],[-72.3265,-2.435],[-71.7757,-2.1693],[-71.4121,-2.3436],[-70.8145,-2.2573],[-70.0477,-2.7244],[-70.6921,-3.7434],[-70.3933,-3.7671],[-69.8929,-4.2985],[-70.7965,-4.2511]]]}},{"type":"Feature","properties":{"name":"Panama"},"geometry":{"type":"Polygon","coordinates":[[[-77.4746,8.5243],[-77.2442,7.9353],[-77.4314,7.6374],[-77.7518,7.7102],[-77.8814,7.2244],[-78.2162,7.5122],[-78.4286,8.0521],[-78.1838,8.3195],[-78.4358,8.3872],[-78.623,8.7189],[-79.1198,8.9965],[-79.559,8.9322],[-79.7606,8.5852],[-80.1638,8.333],[-80.3834,8.2992],[-80.4806,8.091],[-80.0054,7.5477],[-80.2754,7.4191],[-80.4194,7.2718],[-80.8874,7.221],[-81.0602,7.8185],[-81.1898,7.6476],[-81.521,7.7068],[-81.7226,8.1096],[-82.133,8.1756],[-82.3922,8.2924],[-82.8206,8.2907],[-82.8494,8.0741],[-82.9646,8.2247],[-82.9142,8.4227],[-82.8314,8.6259],[-82.8674,8.807],[-82.7198,8.9254],[-82.9286,9.0744],[-82.9322,9.4772],[-82.547,9.5669],[-82.187,9.2081],[-82.2086,8.9948],[-81.809,8.9508],[-81.7154,9.0321],[-81.4382,8.7866],[-80.9486,8.8577],[-80.5202,9.1116],[-79.9154,9.313],[-79.5734,9.6109],[-79.0226,9.5534],[-79.0586,9.4552],[-78.5006,9.4197],[-78.0542,9.247],[-77.7302,8.9474],[-77.3522,8.6699],[-77.4746,8.5243]]]}},{"type":"Feature","properties":{"name":"Venezuela"},"geometry":{"type":"Polygon","coordinates":[[[-63.888,4.0204],[-64.6296,4.149],[-64.8168,4.0559],[-64.3668,3.797],[-64.41,3.1267],[-64.2696,2.4971],[-63.8561,2.4549],[-63.8561,2.0069],[-64.0824,1.9166],[-64.1976,1.4934],[-64.6116,1.3292],[-65.3533,1.0957],[-65.5477,0.7893],[-66.3253,0.725],[-66.8761,1.2531],[-67.1821,2.25],[-67.4485,2.6003],[-67.8085,2.8204],[-67.3045,3.318],[-67.3369,3.5431],[-67.6213,3.8393],[-67.8229,4.5045],[-67.7437,5.2204],[-67.5205,5.5572],[-67.3405,6.0955],[-67.6969,6.2681],[-68.2657,6.153],[-68.9857,6.2072],[-69.3889,6.1006],[-70.0945,6.9604],[-70.6741,7.0873],[-71.9593,6.9908],[-72.1969,7.3412],[-72.4453,7.4241],[-72.4813,7.6323],[-72.3625,8.003],[-72.4381,8.4058],[-72.6613,8.6259],[-72.7873,9.0845],[-73.3057,9.1522],[-73.0285,9.7362],[-72.9061,10.4504],[-72.6145,10.8228],[-72.2293,11.1088],[-71.9737,11.6081],[-71.3329,11.7757],[-71.3617,11.5404],[-71.9485,11.4237],[-71.6209,10.97],[-71.6317,10.447],[-72.0745,9.8648],[-71.6965,9.0727],[-71.2645,9.137],[-71.0413,9.8597],[-71.3509,10.2118],[-71.4013,10.9684],[-70.1557,11.3763],[-70.2925,11.8468],[-69.9433,12.1616],[-69.5833,11.4592],[-68.8813,11.444],[-68.2333,10.8854],[-68.1937,10.5554],[-67.2973,10.5452],[-66.2281,10.6485],[-65.6557,10.2016],[-64.8888,10.0764],[-64.3308,10.3895],[-64.3164,10.6417],[-63.8561,10.6637],[-63.8561,4.0103],[-63.888,4.0204]]]}},{"type":"Feature","properties":{"name":"Ecuador"},"geometry":{"type":"Polygon","coordinates":[[[-75.2354,-0.9117],[-75.545,-1.5617],[-76.6358,-2.6093],[-77.8382,-3.0037],[-78.4502,-3.8737],[-78.641,-4.5473],[-79.2062,-4.9586],[-79.6238,-4.4542],[-80.0306,-4.3459],[-80.441,-4.4255],[-80.4698,-4.0599],[-80.1854,-3.8212],[-80.3042,-3.4049],[-79.7714,-2.6567],[-79.9874,-2.2201],[-80.369,-2.6855],[-80.9666,-2.2471],[-80.765,-1.9645],[-80.9342,-1.0573],[-80.585,-0.9066],[-80.3978,-0.2838],[-80.0198,0.3611],[-80.0918,0.769],[-79.541,0.9823],[-78.857,1.3817],[-77.8562,0.8096],[-77.669,0.8265],[-77.4242,0.3949],[-76.5782,0.2562],[-76.2938,0.4153],[-75.8006,0.0852],[-75.3722,-0.1518],[-75.2354,-0.9117]]]}}]}